start=new Date('2021-10-06T00:00:00.000Z').valueOf();
sats=[{"TIME_SYSTEM":"UTC","NORAD_CAT_ID":"48437","OBJECT_TYPE":"PAYLOAD","MEAN_MOTION":"15.04763262","RA_OF_ASC_NODE":"247.9647","CLASSIFICATION_TYPE":"U","DECAY_DATE":null,"ELEMENT_SET_NO":"999","MEAN_MOTION_DDOT":"0.0000000000000","MEAN_ANOMALY":"312.2794","REF_FRAME":"TEME","SEMIMAJOR_AXIS":"6930.369","GP_ID":"186278158","PERIAPSIS":"551.409","TLE_LINE1":"1 48437U 21040K   21278.21140124  .00000102  00000-0  26594-4 0  9991","APOAPSIS":"553.060","CENTER_NAME":"EARTH","PERIOD":"95.696","EPHEMERIS_TYPE":"0","RCS_SIZE":"MEDIUM","REV_AT_EPOCH":"2285","MEAN_ELEMENT_THEORY":"SGP4","LAUNCH_DATE":"2021-05-09","TLE_LINE2":"2 48437  53.0547 247.9647 0001191  47.8295 312.2794 15.04763262 22859","FILE":"3145988","BSTAR":"0.00002659400000","COUNTRY_CODE":"US","EPOCH":"2021-10-05T05:04:25.067136","MEAN_MOTION_DOT":"0.00000102","ECCENTRICITY":"0.00011910","INCLINATION":"53.0547","OBJECT_ID":"2021-040K","OBJECT_NAME":"STARLINK-2642","SITE":"AFETR","ARG_OF_PERICENTER":"47.8295"},{"ECCENTRICITY":"0.00016900","MEAN_MOTION_DOT":"0.00002028","EPOCH":"2021-10-05T05:06:23.072256","COUNTRY_CODE":"US","BSTAR":"0.00015503000000","FILE":"3145988","LAUNCH_DATE":"2021-05-09","TLE_LINE2":"2 48438  53.0548 238.2659 0001690  58.1699 301.9455 15.06396483 22986","MEAN_ELEMENT_THEORY":"SGP4","RCS_SIZE":"LARGE","REV_AT_EPOCH":"2298","ARG_OF_PERICENTER":"58.1699","SITE":"AFETR","OBJECT_NAME":"STARLINK-2640","OBJECT_ID":"2021-040L","INCLINATION":"53.0548","MEAN_MOTION_DDOT":"0.0000000000000","ELEMENT_SET_NO":"999","DECAY_DATE":null,"RA_OF_ASC_NODE":"238.2659","CLASSIFICATION_TYPE":"U","MEAN_MOTION":"15.06396483","OBJECT_TYPE":"PAYLOAD","NORAD_CAT_ID":"48438","TIME_SYSTEM":"UTC","EPHEMERIS_TYPE":"0","PERIOD":"95.592","APOAPSIS":"548.395","CENTER_NAME":"EARTH","TLE_LINE1":"1 48438U 21040L   21278.21276704  .00002028  00000-0  15503-3 0  9992","PERIAPSIS":"546.054","SEMIMAJOR_AXIS":"6925.359","GP_ID":"186278385","REF_FRAME":"TEME","MEAN_ANOMALY":"301.9455"},{"OBJECT_NAME":"STARLINK-2583","ARG_OF_PERICENTER":"67.5805","SITE":"AFETR","OBJECT_ID":"2021-040M","INCLINATION":"53.0565","BSTAR":"0.00005001900000","EPOCH":"2021-10-05T06:36:38.139552","COUNTRY_CODE":"US","ECCENTRICITY":"0.00016350","MEAN_MOTION_DOT":"0.00000463","RCS_SIZE":"LARGE","REV_AT_EPOCH":"2299","MEAN_ELEMENT_THEORY":"SGP4","TLE_LINE2":"2 48439  53.0565 237.9856 0001635  67.5805 292.5357 15.06388868 22998","LAUNCH_DATE":"2021-05-09","FILE":"3145988","PERIOD":"95.593","EPHEMERIS_TYPE":"0","REF_FRAME":"TEME","MEAN_ANOMALY":"292.5357","SEMIMAJOR_AXIS":"6925.383","GP_ID":"186278266","PERIAPSIS":"546.115","CENTER_NAME":"EARTH","APOAPSIS":"548.380","TLE_LINE1":"1 48439U 21040M   21278.27544143  .00000463  00000-0  50019-4 0  9997","DECAY_DATE":null,"ELEMENT_SET_NO":"999","MEAN_MOTION_DDOT":"0.0000000000000","NORAD_CAT_ID":"48439","TIME_SYSTEM":"UTC","OBJECT_TYPE":"PAYLOAD","MEAN_MOTION":"15.06388868","RA_OF_ASC_NODE":"237.9856","CLASSIFICATION_TYPE":"U"},{"MEAN_MOTION_DDOT":"0.0000000000000","DECAY_DATE":null,"ELEMENT_SET_NO":"999","MEAN_MOTION":"15.06391835","RA_OF_ASC_NODE":"237.9847","CLASSIFICATION_TYPE":"U","NORAD_CAT_ID":"48440","TIME_SYSTEM":"UTC","OBJECT_TYPE":"PAYLOAD","PERIOD":"95.593","EPHEMERIS_TYPE":"0","PERIAPSIS":"546.065","CENTER_NAME":"EARTH","APOAPSIS":"548.412","TLE_LINE1":"1 48440U 21040N   21278.27175442  .00000109  00000-0  26231-4 0  9997","REF_FRAME":"TEME","MEAN_ANOMALY":"294.6586","GP_ID":"186278277","SEMIMAJOR_AXIS":"6925.374","EPOCH":"2021-10-05T06:31:19.581888","COUNTRY_CODE":"US","ECCENTRICITY":"0.00016940","MEAN_MOTION_DOT":"0.00000109","BSTAR":"0.00002623100000","TLE_LINE2":"2 48440  53.0543 237.9847 0001694  65.4580 294.6586 15.06391835 22993","LAUNCH_DATE":"2021-05-09","FILE":"3145988","REV_AT_EPOCH":"2299","RCS_SIZE":"LARGE","MEAN_ELEMENT_THEORY":"SGP4","ARG_OF_PERICENTER":"65.4580","SITE":"AFETR","OBJECT_NAME":"STARLINK-2682","OBJECT_ID":"2021-040N","INCLINATION":"53.0543"},{"OBJECT_ID":"2021-040P","INCLINATION":"53.0554","OBJECT_NAME":"STARLINK-2702","ARG_OF_PERICENTER":"71.9385","SITE":"AFETR","RCS_SIZE":"LARGE","REV_AT_EPOCH":"2299","MEAN_ELEMENT_THEORY":"SGP4","TLE_LINE2":"2 48441  53.0554 238.0003 0001769  71.9385 288.1796 15.06397370 22991","LAUNCH_DATE":"2021-05-09","FILE":"3145988","BSTAR":"0.00006107900000","EPOCH":"2021-10-05T06:26:00.253536","COUNTRY_CODE":"US","ECCENTRICITY":"0.00017690","MEAN_MOTION_DOT":"0.00000628","REF_FRAME":"TEME","MEAN_ANOMALY":"288.1796","GP_ID":"186278493","SEMIMAJOR_AXIS":"6925.357","PERIAPSIS":"545.997","APOAPSIS":"548.447","CENTER_NAME":"EARTH","TLE_LINE1":"1 48441U 21040P   21278.26805849  .00000628  00000-0  61079-4 0  9993","PERIOD":"95.592","EPHEMERIS_TYPE":"0","NORAD_CAT_ID":"48441","TIME_SYSTEM":"UTC","OBJECT_TYPE":"PAYLOAD","MEAN_MOTION":"15.06397370","CLASSIFICATION_TYPE":"U","RA_OF_ASC_NODE":"238.0003","DECAY_DATE":null,"ELEMENT_SET_NO":"999","MEAN_MOTION_DDOT":"0.0000000000000"},{"OBJECT_NAME":"STARLINK-2644","SITE":"AFETR","ARG_OF_PERICENTER":"66.5361","INCLINATION":"53.0546","OBJECT_ID":"2021-040Q","BSTAR":"0.00001824600000","COUNTRY_CODE":"US","EPOCH":"2021-10-05T11:07:19.608960","MEAN_MOTION_DOT":"-0.00000010","ECCENTRICITY":"0.00015250","RCS_SIZE":"LARGE","REV_AT_EPOCH":"2302","MEAN_ELEMENT_THEORY":"SGP4","TLE_LINE2":"2 48442  53.0546 237.1262 0001525  66.5361 293.5788 15.06390454 23026","LAUNCH_DATE":"2021-05-09","FILE":"3145988","PERIOD":"95.593","EPHEMERIS_TYPE":"0","MEAN_ANOMALY":"293.5788","REF_FRAME":"TEME","GP_ID":"186278051","SEMIMAJOR_AXIS":"6925.378","PERIAPSIS":"546.187","TLE_LINE1":"1 48442U 21040Q   21278.46342140 -.00000010  00000-0  18246-4 0  9990","CENTER_NAME":"EARTH","APOAPSIS":"548.299","DECAY_DATE":null,"ELEMENT_SET_NO":"999","MEAN_MOTION_DDOT":"0.0000000000000","TIME_SYSTEM":"UTC","NORAD_CAT_ID":"48442","OBJECT_TYPE":"PAYLOAD","MEAN_MOTION":"15.06390454","RA_OF_ASC_NODE":"237.1262","CLASSIFICATION_TYPE":"U"},{"ELEMENT_SET_NO":"999","DECAY_DATE":null,"MEAN_MOTION_DDOT":"0.0000000000000","OBJECT_TYPE":"PAYLOAD","TIME_SYSTEM":"UTC","NORAD_CAT_ID":"48443","RA_OF_ASC_NODE":"237.7351","CLASSIFICATION_TYPE":"U","MEAN_MOTION":"15.06391622","EPHEMERIS_TYPE":"0","PERIOD":"95.593","GP_ID":"186278601","SEMIMAJOR_AXIS":"6925.374","MEAN_ANOMALY":"292.7284","REF_FRAME":"TEME","TLE_LINE1":"1 48443U 21040R   21278.32704073 -.00000201  00000-0  54139-5 0  9997","APOAPSIS":"548.330","CENTER_NAME":"EARTH","PERIAPSIS":"546.148","BSTAR":"0.00000541390000","MEAN_MOTION_DOT":"-0.00000201","ECCENTRICITY":"0.00015750","COUNTRY_CODE":"US","EPOCH":"2021-10-05T07:50:56.319072","MEAN_ELEMENT_THEORY":"SGP4","REV_AT_EPOCH":"2300","RCS_SIZE":"LARGE","FILE":"3145988","LAUNCH_DATE":"2021-05-09","TLE_LINE2":"2 48443  53.0550 237.7351 0001575  67.3872 292.7284 15.06391622 23006","OBJECT_NAME":"STARLINK-2663","SITE":"AFETR","ARG_OF_PERICENTER":"67.3872","INCLINATION":"53.0550","OBJECT_ID":"2021-040R"},{"BSTAR":"0.00001524000000","EPOCH":"2021-10-05T10:56:42.519552","COUNTRY_CODE":"US","ECCENTRICITY":"0.00016060","MEAN_MOTION_DOT":"-0.00000055","REV_AT_EPOCH":"2302","RCS_SIZE":"LARGE","MEAN_ELEMENT_THEORY":"SGP4","TLE_LINE2":"2 48444  53.0553 237.1602 0001606  63.2631 296.8522 15.06390220 23021","LAUNCH_DATE":"2021-05-09","FILE":"3145988","OBJECT_NAME":"STARLINK-2645","ARG_OF_PERICENTER":"63.2631","SITE":"AFETR","OBJECT_ID":"2021-040S","INCLINATION":"53.0553","ELEMENT_SET_NO":"999","DECAY_DATE":null,"MEAN_MOTION_DDOT":"0.0000000000000","NORAD_CAT_ID":"48444","TIME_SYSTEM":"UTC","OBJECT_TYPE":"PAYLOAD","MEAN_MOTION":"15.06390220","CLASSIFICATION_TYPE":"U","RA_OF_ASC_NODE":"237.1602","PERIOD":"95.593","EPHEMERIS_TYPE":"0","REF_FRAME":"TEME","MEAN_ANOMALY":"296.8522","GP_ID":"186277944","SEMIMAJOR_AXIS":"6925.379","PERIAPSIS":"546.131","CENTER_NAME":"EARTH","APOAPSIS":"548.356","TLE_LINE1":"1 48444U 21040S   21278.45604768 -.00000055  00000-0  15240-4 0  9998"},{"ARG_OF_PERICENTER":"68.0700","SITE":"AFETR","OBJECT_NAME":"STARLINK-2634","OBJECT_ID":"2021-040T","INCLINATION":"53.0561","EPOCH":"2021-10-05T10:51:24.295392","COUNTRY_CODE":"US","ECCENTRICITY":"0.00015820","MEAN_MOTION_DOT":"0.00000292","BSTAR":"0.00003852900000","TLE_LINE2":"2 48445  53.0561 237.1738 0001582  68.0700 292.0457 15.06392165 23029","LAUNCH_DATE":"2021-05-09","FILE":"3145988","REV_AT_EPOCH":"2302","RCS_SIZE":"LARGE","MEAN_ELEMENT_THEORY":"SGP4","PERIOD":"95.593","EPHEMERIS_TYPE":"0","PERIAPSIS":"546.142","APOAPSIS":"548.333","CENTER_NAME":"EARTH","TLE_LINE1":"1 48445U 21040T   21278.45236453  .00000292  00000-0  38529-4 0  9998","REF_FRAME":"TEME","MEAN_ANOMALY":"292.0457","GP_ID":"186278159","SEMIMAJOR_AXIS":"6925.373","MEAN_MOTION_DDOT":"0.0000000000000","DECAY_DATE":null,"ELEMENT_SET_NO":"999","MEAN_MOTION":"15.06392165","CLASSIFICATION_TYPE":"U","RA_OF_ASC_NODE":"237.1738","NORAD_CAT_ID":"48445","TIME_SYSTEM":"UTC","OBJECT_TYPE":"PAYLOAD"},{"TLE_LINE1":"1 48446U 21040U   21278.31598330  .00000297  00000-0  38860-4 0  9992","CENTER_NAME":"EARTH","APOAPSIS":"548.325","PERIAPSIS":"546.162","GP_ID":"186278386","SEMIMAJOR_AXIS":"6925.379","MEAN_ANOMALY":"295.8233","REF_FRAME":"TEME","EPHEMERIS_TYPE":"0","PERIOD":"95.593","CLASSIFICATION_TYPE":"U","RA_OF_ASC_NODE":"237.7886","MEAN_MOTION":"15.06390200","OBJECT_TYPE":"PAYLOAD","TIME_SYSTEM":"UTC","NORAD_CAT_ID":"48446","MEAN_MOTION_DDOT":"0.0000000000000","ELEMENT_SET_NO":"999","DECAY_DATE":null,"INCLINATION":"53.0549","OBJECT_ID":"2021-040U","SITE":"AFETR","ARG_OF_PERICENTER":"64.2917","OBJECT_NAME":"STARLINK-2247","FILE":"3145988","LAUNCH_DATE":"2021-05-09","TLE_LINE2":"2 48446  53.0549 237.7886 0001562  64.2917 295.8233 15.06390200 23001","MEAN_ELEMENT_THEORY":"SGP4","REV_AT_EPOCH":"2300","RCS_SIZE":"LARGE","MEAN_MOTION_DOT":"0.00000297","ECCENTRICITY":"0.00015620","COUNTRY_CODE":"US","EPOCH":"2021-10-05T07:35:00.957120","BSTAR":"0.00003886000000"}];
